{"type": "FeatureCollection", "features": [ {"type": "Feature", "properties": {"norad_id": 34031, "name": "COSMOS 2251 DEB", "group": "cosmos-2251-debris", "lat": 10.107162873425848, "lon": -27.42862092512858, "alt_km": 700.7085155840296, "timestamp": "2025-12-02T08:59:33.108264+00:00", "meta": {"OBJECT_NAME": "COSMOS 2251 DEB", "OBJECT_ID": "1993-036HS", "EPOCH": "2025-12-01T22:55:40.574208", "MEAN_MOTION": 14.59479538, "ECCENTRICITY": 0.0022931, "INCLINATION": 74.0119, "RA_OF_ASC_NODE": 156.3013, "ARG_OF_PERICENTER": 277.022, "MEAN_ANOMALY": 210.1382, "EPHEMERIS_TYPE": 0, "CLASSIFICATION_TYPE": "U", "NORAD_CAT_ID": 34031, "ELEMENT_SET_NO": 999, "REV_AT_EPOCH": 88408, "BSTAR": 0.0013222, "MEAN_MOTION_DOT": 6.272e-05, "MEAN_MOTION_DDOT": 0}, "tle": {"line1": "1 34031U 93036HS  25335.95533072  .00006272  00000+0  13222-2 0  9992", "line2": "2 34031  74.0119 156.3013 0022931 277.0220 210.1382 14.59479538884081"}}, "geometry": {"type": "Point", "coordinates": [-27.42862092512858, 10.107162873425848]}}, {"type": "Feature", "properties": {"norad_id": 34035, "name": "COSMOS 2251 DEB", "group": "cosmos-2251-debris", "lat": -71.80903162751072, "lon": -110.98634177400493, "alt_km": 738.3336644831816, "timestamp": "2025-12-02T08:59:33.108276+00:00", "meta": {"OBJECT_NAME": "COSMOS 2251 DEB", "OBJECT_ID": "1993-036HW", "EPOCH": "2025-12-01T20:26:50.205408", "MEAN_MOTION": 14.51729735, "ECCENTRICITY": 0.0043997, "INCLINATION": 74.0664, "RA_OF_ASC_NODE": 9.6115, "ARG_OF_PERICENTER": 13.8731, "MEAN_ANOMALY": 36.9655, "EPHEMERIS_TYPE": 0, "CLASSIFICATION_TYPE": "U", "NORAD_CAT_ID": 34035, "ELEMENT_SET_NO": 999, "REV_AT_EPOCH": 87808, "BSTAR": 0.0015572, "MEAN_MOTION_DOT": 6.311e-05, "MEAN_MOTION_DDOT": 0}, "tle": {"line1": "1 34035U 93036HW  25335.85196997  .00006311  00000+0  15572-2 0  9990", "line2": "2 34035  74.0664   9.6115 0043997  13.8731  36.9655 14.51729735878080"}}, "geometry": {"type": "Point", "coordinates": [-110.98634177400493, -71.80903162751072]}}, {"type": "Feature", "properties": {"norad_id": 34036, "name": "COSMOS 2251 DEB", "group": "cosmos-2251-debris", "lat": 16.912288789585524, "lon": 175.16462703739143, "alt_km": 597.3730762349815, "timestamp": "2025-12-02T08:59:33.108286+00:00", "meta": {"OBJECT_NAME": "COSMOS 2251 DEB", "OBJECT_ID": "1993-036HX", "EPOCH": "2025-11-30T23:09:20.036736", "MEAN_MOTION": 14.93557713, "ECCENTRICITY": 0.00153307, "INCLINATION": 74.0215, "RA_OF_ASC_NODE": 173.0047, "ARG_OF_PERICENTER": 207.7863, "MEAN_ANOMALY": 152.2504, "EPHEMERIS_TYPE": 0, "CLASSIFICATION_TYPE": "U", "NORAD_CAT_ID": 34036, "ELEMENT_SET_NO": 999, "REV_AT_EPOCH": 88394, "BSTAR": 0.0033859171, "MEAN_MOTION_DOT": 0.00035932, "MEAN_MOTION_DDOT": 0}, "tle": {"line1": "1 34036U 93036HX  25334.96481524  .00035932  00000+0  33859-2 0  9994", "line2": "2 34036  74.0215 173.0047 0015330 207.7863 152.2504 14.93557713883940"}}, "geometry": {"type": "Point", "coordinates": [175.16462703739143, 16.912288789585524]}}, {"type": "Feature", "properties": {"norad_id": 34037, "name": "COSMOS 2251 DEB", "group": "cosmos-2251-debris", "lat": 35.93708029554772, "lon": -122.5511313941551, "alt_km": 738.0987788643679, "timestamp": "2025-12-02T08:59:33.108296+00:00", "meta": {"OBJECT_NAME": "COSMOS 2251 DEB", "OBJECT_ID": "1993-036HY", "EPOCH": "2025-12-01T17:16:20.794368", "MEAN_MOTION": 14.3461163, "ECCENTRICITY": 0.0052541, "INCLINATION": 74.0515, "RA_OF_ASC_NODE": 70.6101, "ARG_OF_PERICENTER": 123.9302, "MEAN_ANOMALY": 236.6862, "EPHEMERIS_TYPE": 0, "CLASSIFICATION_TYPE": "U", "NORAD_CAT_ID": 34037, "ELEMENT_SET_NO": 999, "REV_AT_EPOCH": 87559, "BSTAR": 0.000596, "MEAN_MOTION_DOT": 1.685e-05, "MEAN_MOTION_DDOT": 0}, "tle": {"line1": "1 34037U 93036HY  25335.71968512  .00001685  00000+0  59600-3 0  9997", "line2": "2 34037  74.0515  70.6101 0052541 123.9302 236.6862 14.34611630875599"}}, "geometry": {"type": "Point", "coordinates": [-122.5511313941551, 35.93708029554772]}}, {"type": "Feature", "properties": {"norad_id": 34040, "name": "COSMOS 2251 DEB", "group": "cosmos-2251-debris", "lat": -19.87345128492614, "lon": 77.01854552637823, "alt_km": 874.0185897774618, "timestamp": "2025-12-02T08:59:33.108306+00:00", "meta": {"OBJECT_NAME": "COSMOS 2251 DEB", "OBJECT_ID": "1993-036JB", "EPOCH": "2025-12-01T15:32:36.382848", "MEAN_MOTION": 13.68357292, "ECCENTRICITY": 0.03427998, "INCLINATION": 73.9552, "RA_OF_ASC_NODE": 84.1901, "ARG_OF_PERICENTER": 39.8659, "MEAN_ANOMALY": 322.71, "EPHEMERIS_TYPE": 0, "CLASSIFICATION_TYPE": "U", "NORAD_CAT_ID": 34040, "ELEMENT_SET_NO": 999, "REV_AT_EPOCH": 83448, "BSTAR": 0.0003473683, "MEAN_MOTION_DOT": 4.26e-06, "MEAN_MOTION_DDOT": 0}, "tle": {"line1": "1 34040U 93036JB  25335.64764332  .00000426  00000+0  34737-3 0  9993", "line2": "2 34040  73.9552  84.1901 0342799  39.8659 322.7100 13.68357292834489"}}, "geometry": {"type": "Point", "coordinates": [77.01854552637823, -19.87345128492614]}}, {"type": "Feature", "properties": {"norad_id": 34045, "name": "COSMOS 2251 DEB", "group": "cosmos-2251-debris", "lat": -27.312495544191208, "lon": 158.2975778983652, "alt_km": 799.5644893301769, "timestamp": "2025-12-02T08:59:33.108316+00:00", "meta": {"OBJECT_NAME": "COSMOS 2251 DEB", "OBJECT_ID": "1993-036JG", "EPOCH": "2025-12-02T03:22:02.458272", "MEAN_MOTION": 14.34058969, "ECCENTRICITY": 0.0025314, "INCLINATION": 74.0386, "RA_OF_ASC_NODE": 330.2269, "ARG_OF_PERICENTER": 56.9772, "MEAN_ANOMALY": 21.7467, "EPHEMERIS_TYPE": 0, "CLASSIFICATION_TYPE": "U", "NORAD_CAT_ID": 34045, "ELEMENT_SET_NO": 999, "REV_AT_EPOCH": 87881, "BSTAR": 0.00011218, "MEAN_MOTION_DOT": 2.89e-06, "MEAN_MOTION_DDOT": 0}, "tle": {"line1": "1 34045U 93036JG  25336.14030623  .00000289  00000+0  11218-3 0  9999", "line2": "2 34045  74.0386 330.2269 0025314  56.9772  21.7467 14.34058969878810"}}, "geometry": {"type": "Point", "coordinates": [158.2975778983652, -27.312495544191208]}}, {"type": "Feature", "properties": {"norad_id": 34046, "name": "COSMOS 2251 DEB", "group": "cosmos-2251-debris", "lat": 72.70344013130841, "lon": 143.04907813642532, "alt_km": 680.0264104708103, "timestamp": "2025-12-02T08:59:33.108326+00:00", "meta": {"OBJECT_NAME": "COSMOS 2251 DEB", "OBJECT_ID": "1993-036JH", "EPOCH": "2025-12-02T03:40:09.994080", "MEAN_MOTION": 14.46329608, "ECCENTRICITY": 0.007495, "INCLINATION": 74.0406, "RA_OF_ASC_NODE": 30.2382, "ARG_OF_PERICENTER": 116.7965, "MEAN_ANOMALY": 265.8384, "EPHEMERIS_TYPE": 0, "CLASSIFICATION_TYPE": "U", "NORAD_CAT_ID": 34046, "ELEMENT_SET_NO": 999, "REV_AT_EPOCH": 87673, "BSTAR": 0.0013366, "MEAN_MOTION_DOT": 4.94e-05, "MEAN_MOTION_DDOT": 0}, "tle": {"line1": "1 34046U 93036JH  25336.15289345  .00004940  00000+0  13366-2 0  9991", "line2": "2 34046  74.0406  30.2382 0074950 116.7965 265.8384 14.46329608876738"}}, "geometry": {"type": "Point", "coordinates": [143.04907813642532, 72.70344013130841]}}, {"type": "Feature", "properties": {"norad_id": 34050, "name": "COSMOS 2251 DEB", "group": "cosmos-2251-debris", "lat": 42.00017904323415, "lon": 42.71430573747791, "alt_km": 802.146884416863, "timestamp": "2025-12-02T08:59:33.108337+00:00", "meta": {"OBJECT_NAME": "COSMOS 2251 DEB", "OBJECT_ID": "1993-036JM", "EPOCH": "2025-12-02T03:46:23.655936", "MEAN_MOTION": 13.96151986, "ECCENTRICITY": 0.0214733, "INCLINATION": 74.0888, "RA_OF_ASC_NODE": 28.2046, "ARG_OF_PERICENTER": 95.234, "MEAN_ANOMALY": 298.2048, "EPHEMERIS_TYPE": 0, "CLASSIFICATION_TYPE": "U", "NORAD_CAT_ID": 34050, "ELEMENT_SET_NO": 999, "REV_AT_EPOCH": 85284, "BSTAR": 0.0006422, "MEAN_MOTION_DOT": 1.049e-05, "MEAN_MOTION_DDOT": 0}, "tle": {"line1": "1 34050U 93036JM  25336.15721824  .00001049  00000+0  64220-3 0  9992", "line2": "2 34050  74.0888  28.2046 0214733  95.2340 298.2048 13.96151986852843"}}, "geometry": {"type": "Point", "coordinates": [42.71430573747791, 42.00017904323415]}}, {"type": "Feature", "properties": {"norad_id": 34053, "name": "COSMOS 2251 DEB", "group": "cosmos-2251-debris", "lat": -31.955260517263927, "lon": -111.54454803018248, "alt_km": 1027.139981624705, "timestamp": "2025-12-02T08:59:33.108347+00:00", "meta": {"OBJECT_NAME": "COSMOS 2251 DEB", "OBJECT_ID": "1993-036JQ", "EPOCH": "2025-12-02T03:48:48.178080", "MEAN_MOTION": 13.49132816, "ECCENTRICITY": 0.0421604, "INCLINATION": 73.8444, "RA_OF_ASC_NODE": 259.22, "ARG_OF_PERICENTER": 49.5494, "MEAN_ANOMALY": 314.1581, "EPHEMERIS_TYPE": 0, "CLASSIFICATION_TYPE": "U", "NORAD_CAT_ID": 34053, "ELEMENT_SET_NO": 999, "REV_AT_EPOCH": 82541, "BSTAR": 0.00089978, "MEAN_MOTION_DOT": 9.58e-06, "MEAN_MOTION_DDOT": 0}, "tle": {"line1": "1 34053U 93036JQ  25336.15889095  .00000958  00000+0  89978-3 0  9995", "line2": "2 34053  73.8444 259.2200 0421604  49.5494 314.1581 13.49132816825410"}}, "geometry": {"type": "Point", "coordinates": [-111.54454803018248, -31.955260517263927]}}, {"type": "Feature", "properties": {"norad_id": 34056, "name": "COSMOS 2251 DEB", "group": "cosmos-2251-debris", "lat": 2.7691238491399837, "lon": 95.70118374192887, "alt_km": 896.916817267811, "timestamp": "2025-12-02T08:59:33.108358+00:00", "meta": {"OBJECT_NAME": "COSMOS 2251 DEB", "OBJECT_ID": "1993-036JT", "EPOCH": "2025-12-01T18:20:52.050048", "MEAN_MOTION": 14.20462665, "ECCENTRICITY": 0.012499, "INCLINATION": 74.0584, "RA_OF_ASC_NODE": 95.9996, "ARG_OF_PERICENTER": 146.6444, "MEAN_ANOMALY": 338.1178, "EPHEMERIS_TYPE": 0, "CLASSIFICATION_TYPE": "U", "NORAD_CAT_ID": 34056, "ELEMENT_SET_NO": 999, "REV_AT_EPOCH": 86255, "BSTAR": 0.0015927, "MEAN_MOTION_DOT": 3.674e-05, "MEAN_MOTION_DDOT": 0}, "tle": {"line1": "1 34056U 93036JT  25335.76449132  .00003674  00000+0  15927-2 0  9998", "line2": "2 34056  74.0584  95.9996 0124990 146.6444 338.1178 14.20462665862552"}}, "geometry": {"type": "Point", "coordinates": [95.70118374192887, 2.7691238491399837]}}]}